TISAT 1                 
1 36799U 10035E   26068.75703561  .00024554  00000+0  91005-3 0  9996
2 36799  98.0645   6.8512 0001343 159.3030 200.8262 15.27628633852505
STARLINK-33814          
1 63582U 25076P   26068.03740400  .00047391  00000+0  17192-2 0  9999
2 63582  43.0039 325.1199 0001404 269.9064  90.1627 15.27607641 51730
